{
    "links": {
        "self": "http://www.neowsapp.com/rest/v1/neo/3545417?api_key=iIulBulltgU6a56xZRHN4H3l9WmuAYTsLGpBGhQ2"
    },
    "id": "3545417",
    "neo_reference_id": "3545417",
    "name": "(2010 RF)",
    "designation": "2010 RF",
    "nasa_jpl_url": "http://ssd.jpl.nasa.gov/sbdb.cgi?sstr=3545417",
    "absolute_magnitude_h": 23.0,
    "estimated_diameter": {
        "kilometers": {
            "estimated_diameter_min": 0.0667659413,
            "estimated_diameter_max": 0.1492931834
        },
        "meters": {
            "estimated_diameter_min": 66.7659413495,
            "estimated_diameter_max": 149.2931834393
        },
        "miles": {
            "estimated_diameter_min": 0.0414864197,
            "estimated_diameter_max": 0.0927664547
        },
        "feet": {
            "estimated_diameter_min": 219.0483710172,
            "estimated_diameter_max": 489.807047955
        }
    },
    "is_potentially_hazardous_asteroid": false,
    "close_approach_data": [
        {
            "close_approach_date": "1966-09-04",
            "close_approach_date_full": "1966-Sep-04 19:38",
            "epoch_date_close_approach": -104905320000,
            "relative_velocity": {
                "kilometers_per_second": "9.8413191417",
                "kilometers_per_hour": "35428.748910292",
                "miles_per_hour": "22014.0467881756"
            },
            "miss_distance": {
                "astronomical": "0.3090939831",
                "lunar": "120.2375594259",
                "kilometers": "46239801.501575997",
                "miles": "28732080.3288108786"
            },
            "orbiting_body": "Earth"
        },
        {
            "close_approach_date": "1983-08-21",
            "close_approach_date_full": "1983-Aug-21 00:10",
            "epoch_date_close_approach": 430272600000,
            "relative_velocity": {
                "kilometers_per_second": "10.7218862753",
                "kilometers_per_hour": "38598.7905909752",
                "miles_per_hour": "23983.7874091535"
            },
            "miss_distance": {
                "astronomical": "0.3668471765",
                "lunar": "142.7035516585",
                "kilometers": "54879556.219914055",
                "miles": "34100574.970381759"
            },
            "orbiting_body": "Earth"
        },
        {
            "close_approach_date": "2010-08-29",
            "close_approach_date_full": "2010-Aug-29 19:08",
            "epoch_date_close_approach": 1283108880000,
            "relative_velocity": {
                "kilometers_per_second": "7.5663878118",
                "kilometers_per_hour": "27238.9961225501",
                "miles_per_hour": "16925.252896259"
            },
            "miss_distance": {
                "astronomical": "0.1662023942",
                "lunar": "64.6527313438",
                "kilometers": "24863524.161220354",
                "miles": "15449477.5119907252"
            },
            "orbiting_body": "Earth"
        },
        {
            "close_approach_date": "2037-09-05",
            "close_approach_date_full": "2037-Sep-05 16:25",
            "epoch_date_close_approach": 2135780700000,
            "relative_velocity": {
                "kilometers_per_second": "10.2494188842",
                "kilometers_per_hour": "36897.9079830822",
                "miles_per_hour": "22926.9251020435"
            },
            "miss_distance": {
                "astronomical": "0.3415795672",
                "lunar": "132.8744516408",
                "kilometers": "51099575.688641864",
                "miles": "31751803.9822071632"
            },
            "orbiting_body": "Earth"
        },
        {
            "close_approach_date": "2054-08-21",
            "close_approach_date_full": "2054-Aug-21 12:44",
            "epoch_date_close_approach": 2670929040000,
            "relative_velocity": {
                "kilometers_per_second": "10.6864891418",
                "kilometers_per_hour": "38471.3609105146",
                "miles_per_hour": "23904.6075613139"
            },
            "miss_distance": {
                "astronomical": "0.3594995072",
                "lunar": "139.8453083008",
                "kilometers": "53780360.543169664",
                "miles": "33417566.4483788032"
            },
            "orbiting_body": "Earth"
        }
    ],
    "orbital_data": {
        "orbit_id": "17",
        "orbit_determination_date": "2017-04-06 08:56:56",
        "first_observation_date": "2010-09-01",
        "last_observation_date": "2010-10-16",
        "data_arc_in_days": 45,
        "observations_used": 63,
        "orbit_uncertainty": "6",
        "minimum_orbit_intersection": ".166676",
        "jupiter_tisserand_invariant": "3.442",
        "epoch_osculation": "2459000.5",
        "eccentricity": ".4779607644812996",
        "semi_major_axis": "2.252161339080844",
        "inclination": "11.84711360546429",
        "ascending_node_longitude": "337.2426055766307",
        "orbital_period": "1234.518707367163",
        "perihelion_distance": "1.175716583718536",
        "perihelion_argument": ".581611439897231",
        "aphelion_distance": "3.328606094443151",
        "perihelion_time": "2459145.937396371731",
        "mean_anomaly": "317.5887652561499",
        "mean_motion": ".2916116198577224",
        "equinox": "J2000",
        "orbit_class": {
            "orbit_class_type": "AMO",
            "orbit_class_description": "Near-Earth asteroid orbits similar to that of 1221 Amor",
            "orbit_class_range": "1.017 AU < q (perihelion) < 1.3 AU"
        }
    },
    "is_sentry_object": false
}